{
  "norad_id": 52106,
  "name": "STARLINK-3670",
  "history": [
    {
      "epoch": "2026-03-28T22:14:58.879104Z",
      "apogee_km": 540.7278285056709,
      "perigee_km": 538.7833472570683,
      "latitude_deg": 6.427507002921853e-05,
      "longitude_deg": -157.32517999454453,
      "height_km": 540.6440064014248,
      "semi_major_axis_km": 6917.892587881369,
      "eccentricity": 0.00014054,
      "inclination_deg": 53.2199,
      "raan_deg": 2.7606,
      "arg_perigee_deg": 89.5592,
      "mean_anomaly_deg": 270.5562,
      "mean_motion_rev_day": 15.08836009
    },
    {
      "epoch": "2026-03-29T01:25:45.018048Z",
      "apogee_km": 540.6970071585984,
      "perigee_km": 538.8028897121167,
      "latitude_deg": 1.6217065846814696e-05,
      "longitude_deg": 154.2575619501308,
      "height_km": 540.6985462805842,
      "semi_major_axis_km": 6917.886948435357,
      "eccentricity": 0.0001369,
      "inclination_deg": 53.2191,
      "raan_deg": 2.1662,
      "arg_perigee_deg": 93.1914,
      "mean_anomaly_deg": 266.9235,
      "mean_motion_rev_day": 15.08837854
    }
  ]
}